[
    {
        "Altitude(m)": 607911.0244381619,
        "Argument of Periapsis(deg)": 0.0,
        "Eccentricity": 0.0,
        "Inclination(deg)": 60.0,
        "Latitude(deg)": -14.293031057943734,
        "Longitude(deg)": -61.557337951564996,
        "Mean Anomaly(deg)": -163.6364,
        "RAAN(deg)": 210.0,
        "Satellite Name": "Test1 936",
        "Satellite Number": 936,
        "Semi-Major Axis(m)": 6980739.136638005,
        "Time(s)": 0
    },
    {
        "Altitude(m)": 608060.2585028486,
        "Argument of Periapsis(deg)": 0.00010418945913296404,
        "Eccentricity": 0.0,
        "Inclination(deg)": 60.0,
        "Latitude(deg)": -14.826692163377349,
        "Longitude(deg)": -61.26872783022918,
        "Mean Anomaly(deg)": -163.01629385453822,
        "RAAN(deg)": 209.99957995086027,
        "Satellite Name": "Test1 936",
        "Satellite Number": 936,
        "Semi-Major Axis(m)": 6980739.136638005,
        "Time(s)": 10
    },
    {
        "Altitude(m)": 608211.9227634852,
        "Argument of Periapsis(deg)": 0.0002083789182659281,
        "Eccentricity": 0.0,
        "Inclination(deg)": 60.0,
        "Latitude(deg)": -15.359837045513054,
        "Longitude(deg)": -60.978508907407544,
        "Mean Anomaly(deg)": -162.39618770907637,
        "RAAN(deg)": 209.99915990172056,
        "Satellite Name": "Test1 936",
        "Satellite Number": 936,
        "Semi-Major Axis(m)": 6980739.136638005,
        "Time(s)": 20
    },
    {
        "Altitude(m)": 608365.969138448,
        "Argument of Periapsis(deg)": 0.00031256837739889213,
        "Eccentricity": 0.0,
        "Inclination(deg)": 60.0,
        "Latitude(deg)": -15.892444495111784,
        "Longitude(deg)": -60.68661371544482,
        "Mean Anomaly(deg)": -161.77608156361453,
        "RAAN(deg)": 209.99873985258077,
        "Satellite Name": "Test1 936",
        "Satellite Number": 936,
        "Semi-Major Axis(m)": 6980739.136638005,
        "Time(s)": 30
    },
    {
        "Altitude(m)": 608522.3483485706,
        "Argument of Periapsis(deg)": 0.0004167578365318562,
        "Eccentricity": 0.0,
        "Inclination(deg)": 60.0,
        "Latitude(deg)": -16.424492970671448,
        "Longitude(deg)": -60.392973267668786,
        "Mean Anomaly(deg)": -161.1559754181527,
        "RAAN(deg)": 209.99831980344106,
        "Satellite Name": "Test1 936",
        "Satellite Number": 936,
        "Semi-Major Axis(m)": 6980739.136638005,
        "Time(s)": 40
    },
    {
        "Altitude(m)": 608681.0099384785,
        "Argument of Periapsis(deg)": 0.0005209472956648203,
        "Eccentricity": 0.0,
        "Inclination(deg)": 60.0,
        "Latitude(deg)": -16.955960582406927,
        "Longitude(deg)": -60.09751802306213,
        "Mean Anomaly(deg)": -160.53586927269086,
        "RAAN(deg)": 209.9978997543013,
        "Satellite Name": "Test1 936",
        "Satellite Number": 936,
        "Semi-Major Axis(m)": 6980739.136638005,
        "Time(s)": 50
    },
    {
        "Altitude(m)": 608841.9022984233,
        "Argument of Periapsis(deg)": 0.0006251367547977843,
        "Eccentricity": 0.0,
        "Inclination(deg)": 60.0,
        "Latitude(deg)": -17.486825075748417,
        "Longitude(deg)": -59.800177337221704,
        "Mean Anomaly(deg)": -159.915763127229,
        "RAAN(deg)": 209.99747970516154,
        "Satellite Name": "Test1 936",
        "Satellite Number": 936,
        "Semi-Major Axis(m)": 6980739.136638005,
        "Time(s)": 60
    },
    {
        "Altitude(m)": 609004.9726867361,
        "Argument of Periapsis(deg)": 0.0007293262139307483,
        "Eccentricity": 0.0,
        "Inclination(deg)": 60.0,
        "Latitude(deg)": -18.017063814336403,
        "Longitude(deg)": -59.50087891245531,
        "Mean Anomaly(deg)": -159.29565698176717,
        "RAAN(deg)": 209.9970596560218,
        "Satellite Name": "Test1 936",
        "Satellite Number": 936,
        "Semi-Major Axis(m)": 6980739.136638005,
        "Time(s)": 70
    },
    {
        "Altitude(m)": 609170.1672527522,
        "Argument of Periapsis(deg)": 0.0008335156730637124,
        "Eccentricity": 0.0,
        "Inclination(deg)": 60.0,
        "Latitude(deg)": -18.546653762490095,
        "Longitude(deg)": -59.19954975986674,
        "Mean Anomaly(deg)": -158.67555083630535,
        "RAAN(deg)": 209.9966396068821,
        "Satellite Name": "Test1 936",
        "Satellite Number": 936,
        "Semi-Major Axis(m)": 6980739.136638005,
        "Time(s)": 80
    },
    {
        "Altitude(m)": 609337.4310603291,
        "Argument of Periapsis(deg)": 0.0009377051321966765,
        "Eccentricity": 0.0,
        "Inclination(deg)": 60.0,
        "Latitude(deg)": -19.075571467123083,
        "Longitude(deg)": -58.89611564765926,
        "Mean Anomaly(deg)": -158.05544469084356,
        "RAAN(deg)": 209.99621955774234,
        "Satellite Name": "Test1 936",
        "Satellite Number": 936,
        "Semi-Major Axis(m)": 6980739.136638005,
        "Time(s)": 90
    },
    {
        "Altitude(m)": 609506.7081118353,
        "Argument of Periapsis(deg)": 0.0010418945913296407,
        "Eccentricity": 0.0,
        "Inclination(deg)": 60.0,
        "Latitude(deg)": -19.60379303908229,
        "Longitude(deg)": -58.590500548509524,
        "Mean Anomaly(deg)": -157.4353385453817,
        "RAAN(deg)": 209.99579950860257,
        "Satellite Name": "Test1 936",
        "Satellite Number": 936,
        "Semi-Major Axis(m)": 6980739.136638005,
        "Time(s)": 100
    },
    {
        "Altitude(m)": 609677.9413726602,
        "Argument of Periapsis(deg)": 0.0011460840504626045,
        "Eccentricity": 0.0,
        "Inclination(deg)": 60.0,
        "Latitude(deg)": -20.131294133884353,
        "Longitude(deg)": -58.28262759887028,
        "Mean Anomaly(deg)": -156.81523239991992,
        "RAAN(deg)": 209.99537945946284,
        "Satellite Name": "Test1 936",
        "Satellite Number": 936,
        "Semi-Major Axis(m)": 6980739.136638005,
        "Time(s)": 110
    },
    {
        "Altitude(m)": 609851.0727962115,
        "Argument of Periapsis(deg)": 0.0012502735095955685,
        "Eccentricity": 0.0,
        "Inclination(deg)": 60.0,
        "Latitude(deg)": -20.658049931822084,
        "Longitude(deg)": -57.972418544433005,
        "Mean Anomaly(deg)": -156.1951262544581,
        "RAAN(deg)": 209.99495941032313,
        "Satellite Name": "Test1 936",
        "Satellite Number": 936,
        "Semi-Major Axis(m)": 6980739.136638005,
        "Time(s)": 120
    },
    {
        "Altitude(m)": 610026.0433493981,
        "Argument of Periapsis(deg)": 0.0013544629687285324,
        "Eccentricity": 0.0,
        "Inclination(deg)": 60.0,
        "Latitude(deg)": -21.184035117412904,
        "Longitude(deg)": -57.65979318461328,
        "Mean Anomaly(deg)": -155.57502010899623,
        "RAAN(deg)": 209.99453936118337,
        "Satellite Name": "Test1 936",
        "Satellite Number": 936,
        "Semi-Major Axis(m)": 6980739.136638005,
        "Time(s)": 130
    },
    {
        "Altitude(m)": 610202.7930385665,
        "Argument of Periapsis(deg)": 0.0014586524278614966,
        "Eccentricity": 0.0,
        "Inclination(deg)": 60.0,
        "Latitude(deg)": -21.709223858163437,
        "Longitude(deg)": -57.344670328918376,
        "Mean Anomaly(deg)": -154.9549139635344,
        "RAAN(deg)": 209.9941193120436,
        "Satellite Name": "Test1 936",
        "Satellite Number": 936,
        "Semi-Major Axis(m)": 6980739.136638005,
        "Time(s)": 140
    },
    {
        "Altitude(m)": 610381.2609358787,
        "Argument of Periapsis(deg)": 0.0015628418869944607,
        "Eccentricity": 0.0,
        "Inclination(deg)": 60.0,
        "Latitude(deg)": -22.23358978261806,
        "Longitude(deg)": -57.026967239441305,
        "Mean Anomaly(deg)": -154.33480781807256,
        "RAAN(deg)": 209.99369926290387,
        "Satellite Name": "Test1 936",
        "Satellite Number": 936,
        "Semi-Major Axis(m)": 6980739.136638005,
        "Time(s)": 150
    },
    {
        "Altitude(m)": 610561.3852061535,
        "Argument of Periapsis(deg)": 0.0016670313461274247,
        "Eccentricity": 0.0,
        "Inclination(deg)": 60.0,
        "Latitude(deg)": -22.757105957662557,
        "Longitude(deg)": -56.70659907234824,
        "Mean Anomaly(deg)": -153.71470167261074,
        "RAAN(deg)": 209.99327921376417,
        "Satellite Name": "Test1 936",
        "Satellite Number": 936,
        "Semi-Major Axis(m)": 6980739.136638005,
        "Time(s)": 160
    },
    {
        "Altitude(m)": 610743.1031341158,
        "Argument of Periapsis(deg)": 0.0017712208052603888,
        "Eccentricity": 0.0,
        "Inclination(deg)": 60.0,
        "Latitude(deg)": -23.27974486505374,
        "Longitude(deg)": -56.3834798312317,
        "Mean Anomaly(deg)": -153.09459552714887,
        "RAAN(deg)": 209.9928591646244,
        "Satellite Name": "Test1 936",
        "Satellite Number": 936,
        "Semi-Major Axis(m)": 6980739.136638005,
        "Time(s)": 170
    },
    {
        "Altitude(m)": 610926.3511520481,
        "Argument of Periapsis(deg)": 0.001875410264393353,
        "Eccentricity": 0.0,
        "Inclination(deg)": 60.0,
        "Latitude(deg)": -23.8014783771406,
        "Longitude(deg)": -56.0575218065826,
        "Mean Anomaly(deg)": -152.47448938168705,
        "RAAN(deg)": 209.99243911548464,
        "Satellite Name": "Test1 936",
        "Satellite Number": 936,
        "Semi-Major Axis(m)": 6980739.136638005,
        "Time(s)": 180
    },
    {
        "Altitude(m)": 611111.0648678417,
        "Argument of Periapsis(deg)": 0.0019795997235263173,
        "Eccentricity": 0.0,
        "Inclination(deg)": 60.0,
        "Latitude(deg)": -24.322277731745668,
        "Longitude(deg)": -55.72863501426094,
        "Mean Anomaly(deg)": -151.85438323622523,
        "RAAN(deg)": 209.9920190663449,
        "Satellite Name": "Test1 936",
        "Satellite Number": 936,
        "Semi-Major Axis(m)": 6980739.136638005,
        "Time(s)": 190
    }
]